SL-16 R/B               
1 22566U 93016B   26053.93770789  .00000041  00000+0  45672-4 0  9998
2 22566  71.0044 246.1667 0010873 334.5130  25.5455 14.15300158700088
COSMOS 2242             
1 22626U 93024A   26054.05965705  .00001835  00000+0  15895-3 0  9997
2 22626  82.5168 280.7122 0016422 359.9595   0.1623 14.96484142778201
SL-16 R/B               
1 22803U 93059B   26054.07832771  .00000174  00000+0  11003-3 0  9992
2 22803  70.9899  41.9380 0019106 236.6078 123.3218 14.17228181677468
ARIANE 40 R/B           
1 22830U 93061H   26054.17379277  .00000194  00000+0  87071-4 0  9994
2 22830  98.4949 123.3459 0009967 332.4090  27.6564 14.32852502692020
COSMOS 2278             
1 23087U 94023A   26054.17005346  .00000377  00000+0  22162-3 0  9993
2 23087  71.0521 205.4728 0007284  42.0488 318.1192 14.14368380642750
SL-16 R/B               
1 23088U 94023B   26054.08170548  .00000196  00000+0  12604-3 0  9990
2 23088  70.9990 101.5678 0005099 299.2374  60.8239 14.15011772644027
SL-16 R/B               
1 23343U 94074B   26054.11554792  .00000480  00000+0  71047-4 0  9994
2 23343  97.7130  85.5223 0005132 268.7421 148.3428 14.79389168685094
SL-16 R/B               
1 23405U 94077B   26054.21033307 -.00000031  00000+0  84511-5 0  9995
2 23405  70.9843  22.9484 0003783 227.7164 132.3639 14.15564059614183
ARIANE 40+ R/B          
1 23561U 95021B   26054.14539813  .00000284  00000+0  10464-3 0  9996
2 23561  98.4527 125.8226 0006926 176.3288 204.4844 14.39760846617152
SL-16 R/B               
1 23705U 95058B   26054.14593080 -.00000218  00000+0 -87305-4 0  9990
2 23705  71.0202 210.7872 0011261 151.4863 208.6879 14.15494685565796
SL-16 R/B               
1 24298U 96051B   26054.15187698  .00000104  00000+0  83051-4 0  9993
2 24298  70.7583 206.0082 0016367 169.0165 191.1315 14.12411503519598
ORBVIEW 2 (SEASTAR)     
1 24883U 97037A   26054.19860726  .00000300  00000+0  12055-3 0  9995
2 24883  98.8541 218.1285 0003197 100.9739 259.1806 14.35482507506391
